NORAD_CAT_ID,OBJECT_NAME,OBJECT_TYPE,EPOCH,MEAN_MOTION,ECCENTRICITY,INCLINATION,RA_OF_ASC_NODE,ARG_OF_PERICENTER,MEAN_ANOMALY,BSTAR,MEAN_MOTION_DOT,MEAN_MOTION_DDOT,TLE_LINE0,TLE_LINE1,TLE_LINE2,SEMIMAJOR_AXIS,PERIOD,APOGEE,PERIGEE,DECAYED
54806.0,STARLINK-5412,PAYLOAD,2023-03-25 19:59:43,15.08819039,0.0001514,53.2182,196.3726,59.0272,301.0869,-0.00013974,-2.51e-05,0.0,0 STARLINK-5412,1 54806U 22175BA  23084.83313706 -.00002510  00000-0 -13974-3 0  9995,2 54806  53.2182 196.3726 0001514  59.0272 301.0869 15.08819039 17117,6917.944,95.439,540.857,538.762,0.0
54806.0,STARLINK-5412,PAYLOAD,2023-03-26 00:45:49,15.08847502,7.59e-05,53.2192,195.4817,9.8331,350.2676,0.00011145,1.487e-05,0.0,0 STARLINK-5412,1 54806U 22175BA  23085.03182772  .00001487  00000-0  11145-3 0  9993,2 54806  53.2192 195.4817 0000759   9.8331 350.2676 15.08847502 14988,6917.857,95.437,540.248,539.197,0.0
54806.0,STARLINK-5412,PAYLOAD,2023-03-26 18:15:02,15.08879371,0.0001635,53.2185,192.2081,56.1963,303.9184,0.00020476,2.976e-05,0.0,0 STARLINK-5412,1 54806U 22175BA  23085.76044306  .00002976  00000-0  20476-3 0  9994,2 54806  53.2185 192.2081 0001635  56.1963 303.9184 15.08879371 15099,6917.76,95.435,540.756,538.494,0.0
54806.0,STARLINK-5412,PAYLOAD,2023-03-27 13:19:43,15.08826152,0.0002097,53.2189,188.6429,46.9637,313.1531,0.00022305,3.262e-05,0.0,0 STARLINK-5412,1 54806U 22175BA  23086.55536013  .00003262  00000-0  22305-3 0  9995,2 54806  53.2189 188.6429 0002097  46.9637 313.1531 15.08826152 15218,6917.923,95.438,541.238,538.337,0.0
54806.0,STARLINK-5412,PAYLOAD,2023-03-27 16:30:29,15.08829658,0.0001806,53.2178,188.0458,57.8133,302.3034,0.00024215,3.567e-05,0.0,0 STARLINK-5412,1 54806U 22175BA  23086.68783650  .00003567  00000-0  24215-3 0  9990,2 54806  53.2178 188.0458 0001806  57.8133 302.3034 15.08829658 17394,6917.912,95.438,541.026,538.528,0.0
54806.0,STARLINK-5412,PAYLOAD,2023-03-28 13:10:29,15.08862024,0.0001848,53.218,184.1809,56.5831,303.5338,-0.0001965,-3.416e-05,0.0,0 STARLINK-5412,1 54806U 22175BA  23087.54894864 -.00003416  00000-0 -19650-3 0  9998,2 54806  53.2180 184.1809 0001848  56.5831 303.5338 15.08862024 15360,6917.813,95.436,540.956,538.4,0.0
54806.0,STARLINK-5412,PAYLOAD,2023-03-28 16:21:14,15.08864651,0.000175,53.2181,183.5852,59.8562,300.2604,-0.00015687,-2.786e-05,0.0,0 STARLINK-5412,1 54806U 22175BA  23087.68142334 -.00002786  00000-0 -15687-3 0  9996,2 54806  53.2181 183.5852 0001750  59.8562 300.2604 15.08864651 17541,6917.805,95.436,540.881,538.459,0.0
54806.0,STARLINK-5412,PAYLOAD,2023-03-29 13:01:16,15.08843665,0.000169,53.218,179.7208,68.9028,291.2145,8.0521e-06,-1.6e-06,0.0,0 STARLINK-5412,1 54806U 22175BA  23088.54254916 -.00000160  00000-0  80521-5 0  9996,2 54806  53.2180 179.7208 0001690  68.9028 291.2145 15.08843665 15519,6917.869,95.437,540.903,538.565,0.0
54806.0,STARLINK-5412,PAYLOAD,2023-03-29 17:47:24,15.08855,0.0001599,53.2183,178.8275,69.6084,290.508,8.1833e-05,1.015e-05,0.0,0 STARLINK-5412,1 54806U 22175BA  23088.74125762  .00001015  00000-0  81833-4 0  9999,2 54806  53.2183 178.8275 0001599  69.6084 290.5080 15.08855000 15543,6917.835,95.437,540.806,538.593,0.0
54806.0,STARLINK-5412,PAYLOAD,2023-03-30 04:55:09,15.08813786,7.62e-05,53.2176,176.7474,77.1146,282.9931,-0.00014078,-2.526e-05,0.0,0 STARLINK-5412,1 54806U 22175BA  23089.20497071 -.00002526  00000-0 -14078-3 0  9992,2 54806  53.2176 176.7474 0000762  77.1146 282.9931 15.08813786 15610,6917.961,95.439,540.353,539.298,0.0
54806.0,STARLINK-5412,PAYLOAD,2023-03-30 12:52:03,15.08839961,0.0001371,53.2184,175.2604,82.3818,277.733,-1.3112e-05,-4.97e-06,0.0,0 STARLINK-5412,1 54806U 22175BA  23089.53615396 -.00000497  00000-0 -13112-4 0  9994,2 54806  53.2184 175.2604 0001371  82.3818 277.7330 15.08839961 15662,6917.881,95.438,540.694,538.797,0.0
54806.0,STARLINK-5412,PAYLOAD,2023-03-30 16:02:49,15.08844852,0.0001389,53.2184,174.6647,83.3375,276.7775,2.4591e-05,1.03e-06,0.0,0 STARLINK-5412,1 54806U 22175BA  23089.66862927  .00000103  00000-0  24591-4 0  9997,2 54806  53.2184 174.6647 0001389  83.3375 276.7775 15.08844852 17849,6917.866,95.437,540.691,538.77,0.0
54806.0,STARLINK-5412,PAYLOAD,2023-03-31 04:45:55,15.08829257,0.0001382,53.2175,172.2876,72.8447,287.2697,2.8508e-05,1.66e-06,0.0,0 STARLINK-5412,1 54806U 22175BA  23090.19856040  .00000166  00000-0  28508-4 0  9997,2 54806  53.2175 172.2876 0001382  72.8447 287.2697 15.08829257 15764,6917.913,95.438,540.734,538.822,0.0
54806.0,STARLINK-5412,PAYLOAD,2023-03-31 15:53:36,15.08853448,0.0001382,53.2175,170.2046,83.3461,276.7689,9.3662e-05,1.204e-05,0.0,0 STARLINK-5412,1 54806U 22175BA  23090.66222284  .00001204  00000-0  93662-4 0  9993,2 54806  53.2175 170.2046 0001382  83.3461 276.7689 15.08853448 15835,6917.839,95.437,540.66,538.748,0.0
54806.0,STARLINK-5412,PAYLOAD,2023-04-01 04:36:43,15.08815284,9.81e-05,53.2177,167.8264,94.4316,265.6788,8.3577e-05,1.042e-05,0.0,0 STARLINK-5412,1 54806U 22175BA  23091.19216754  .00001042  00000-0  83577-4 0  9991,2 54806  53.2177 167.8264 0000981  94.4316 265.6788 15.08815284 15919,6917.956,95.439,540.5,539.142,0.0
54806.0,STARLINK-5412,PAYLOAD,2023-04-01 10:58:15,15.08830717,0.0001472,53.2183,166.6364,89.7986,270.3175,-3.9823e-05,-9.22e-06,0.0,0 STARLINK-5412,1 54806U 22175BA  23091.45712611 -.00000922  00000-0 -39823-4 0  9996,2 54806  53.2183 166.6364 0001472  89.7986 270.3175 15.08830717 15955,6917.909,95.438,540.792,538.755,0.0
54806.0,STARLINK-5412,PAYLOAD,2023-04-01 14:09:01,15.08832496,0.000136,53.2175,166.0418,89.5323,270.5825,-2.1229e-05,-6.26e-06,0.0,0 STARLINK-5412,1 54806U 22175BA  23091.58960482 -.00000626  00000-0 -21229-4 0  9993,2 54806  53.2175 166.0418 0001360  89.5323 270.5825 15.08832496 18132,6917.903,95.438,540.709,538.827,0.0
54806.0,STARLINK-5412,PAYLOAD,2023-04-01 17:19:47,15.08838531,0.0001379,53.2169,165.4464,89.9758,270.1392,2.2551e-05,7.1e-07,0.0,0 STARLINK-5412,1 54806U 22175BA  23091.72207993  .00000071  00000-0  22551-4 0  9991,2 54806  53.2169 165.4464 0001379  89.9758 270.1392 15.08838531 15997,6917.885,95.438,540.704,538.796,0.0
54806.0,STARLINK-5412,PAYLOAD,2023-04-01 22:05:57,15.08840032,0.0001261,53.2176,164.5548,86.6253,273.4883,-4.1495e-05,-9.48e-06,0.0,0 STARLINK-5412,1 54806U 22175BA  23091.92080090 -.00000948  00000-0 -41495-4 0  9993,2 54806  53.2176 164.5548 0001261  86.6253 273.4883 15.08840032 18186,6917.88,95.438,540.618,538.873,0.0
54806.0,STARLINK-5412,PAYLOAD,2023-04-02 12:24:24,15.08844552,0.0001283,53.2173,161.8801,82.3327,277.7811,0.00012029,1.627e-05,0.0,0 STARLINK-5412,1 54806U 22175BA  23092.51695338  .00001627  00000-0  12029-3 0  9999,2 54806  53.2173 161.8801 0001283  82.3327 277.7811 15.08844552 16114,6917.866,95.437,540.619,538.844,0.0
54806.0,STARLINK-5412,PAYLOAD,2023-04-02 13:59:47,15.08847063,0.0001331,53.2171,161.5817,88.3008,271.8137,0.00010636,1.406e-05,0.0,0 STARLINK-5412,1 54806U 22175BA  23092.58319177  .00001406  00000-0  10636-3 0  9997,2 54806  53.2171 161.5817 0001331  88.3008 271.8137 15.08847063 18288,6917.859,95.437,540.645,538.803,0.0
54806.0,STARLINK-5412,PAYLOAD,2023-04-02 21:56:43,15.08850577,0.0001464,53.2174,160.095,85.5564,274.5596,-4.7671e-05,-1.047e-05,0.0,0 STARLINK-5412,1 54806U 22175BA  23092.91439321 -.00001047  00000-0 -47671-4 0  9991,2 54806  53.2174 160.0950 0001464  85.5564 274.5596 15.08850577 18335,6917.848,95.437,540.726,538.7,0.0
54806.0,STARLINK-5412,PAYLOAD,2023-04-03 04:18:16,15.08832628,0.0001426,53.2177,158.9058,99.9271,260.1882,8.7124e-05,1.099e-05,0.0,0 STARLINK-5412,1 54806U 22175BA  23093.17936003  .00001099  00000-0  87124-4 0  9991,2 54806  53.2177 158.9058 0001426  99.9271 260.1882 15.08832628 16216,6917.903,95.438,540.754,538.781,0.0
54806.0,STARLINK-5412,PAYLOAD,2023-04-03 13:50:35,15.08837251,0.0001328,53.2158,157.1194,111.1744,248.939,3.9205e-05,3.36e-06,0.0,0 STARLINK-5412,1 54806U 22175BA  23093.57679884  .00000336  00000-0  39205-4 0  9996,2 54806  53.2158 157.1194 0001328 111.1744 248.9390 15.08837251 18431,6917.889,95.438,540.672,538.835,0.0
54806.0,STARLINK-5412,PAYLOAD,2023-04-03 15:25:58,15.08842473,0.0001384,53.2166,156.8226,109.1812,250.933,8.3959e-05,1.049e-05,0.0,0 STARLINK-5412,1 54806U 22175BA  23093.64303398  .00001049  00000-0  83959-4 0  9995,2 54806  53.2166 156.8226 0001384 109.1812 250.9330 15.08842473 16287,6917.873,95.437,540.695,538.78,0.0
54806.0,STARLINK-5412,PAYLOAD,2023-04-04 04:09:03,15.0883289,6.34e-05,53.2182,154.4466,78.8011,281.3053,1.9291e-05,1.9e-07,0.0,0 STARLINK-5412,1 54806U 22175BA  23094.17296130  .00000019  00000-0  19291-4 0  9993,2 54806  53.2182 154.4466 0000634  78.8011 281.3053 15.08832890 16366,6917.902,95.438,540.206,539.329,0.0
54806.0,STARLINK-5412,PAYLOAD,2023-04-04 10:30:35,15.08851429,0.0001358,53.2173,153.2565,82.1624,277.9522,-5.3853e-05,-1.145e-05,0.0,0 STARLINK-5412,1 54806U 22175BA  23094.43791470 -.00001145  00000-0 -53853-4 0  9994,2 54806  53.2173 153.2565 0001358  82.1624 277.9522 15.08851429 16401,6917.845,95.437,540.65,538.771,0.0
54806.0,STARLINK-5412,PAYLOAD,2023-04-04 15:16:44,15.08855264,0.0001337,53.2173,152.3633,86.0443,274.0701,2.22e-08,-2.88e-06,0.0,0 STARLINK-5412,1 54806U 22175BA  23094.63662808 -.00000288  00000-0  22200-7 0  9999,2 54806  53.2173 152.3633 0001337  86.0443 274.0701 15.08855264 18596,6917.834,95.437,540.624,538.774,0.0
54806.0,STARLINK-5412,PAYLOAD,2023-04-05 03:59:51,15.08828709,0.0001376,53.2166,149.983,108.8829,251.2312,-4.9238e-05,-1.071e-05,0.0,0 STARLINK-5412,1 54806U 22175BA  23095.16656612 -.00001071  00000-0 -49238-4 0  9993,2 54806  53.2166 149.9830 0001376 108.8829 251.2312 15.08828709 16512,6917.915,95.438,540.732,538.828,0.0
54806.0,STARLINK-5412,PAYLOAD,2023-04-05 11:56:46,15.08840039,0.0001308,53.2174,148.4979,97.88,262.2341,-2.76e-05,-7.27e-06,0.0,0 STARLINK-5412,1 54806U 22175BA  23095.49776007 -.00000727  00000-0 -27600-4 0  9996,2 54806  53.2174 148.4979 0001308  97.8800 262.2341 15.08840039 16569,6917.88,95.438,540.65,538.84,0.0
